[{"OBJECT_NAME":"STARLINK-2105","OBJECT_ID":"2021-005AN","EPOCH":"2026-03-09T21:49:02.578368","MEAN_MOTION":15.06396961,"ECCENTRICITY":0.00014867,"INCLINATION":53.056,"RA_OF_ASC_NODE":30.6362,"ARG_OF_PERICENTER":80.538,"MEAN_ANOMALY":279.5777,"EPHEMERIS_TYPE":0,"CLASSIFICATION_TYPE":"U","NORAD_CAT_ID":47385,"ELEMENT_SET_NO":999,"REV_AT_EPOCH":28349,"BSTAR":-7.95248e-6,"MEAN_MOTION_DOT":-4.0e-6,"MEAN_MOTION_DDOT":0},{"OBJECT_NAME":"COSMOS 2251 DEB","OBJECT_ID":"1993-036SU","EPOCH":"2026-03-09T16:21:38.417760","MEAN_MOTION":15.03076437,"ECCENTRICITY":0.00203067,"INCLINATION":74.0425,"RA_OF_ASC_NODE":271.4678,"ARG_OF_PERICENTER":270.4432,"MEAN_ANOMALY":89.443,"EPHEMERIS_TYPE":0,"CLASSIFICATION_TYPE":"U","NORAD_CAT_ID":34451,"ELEMENT_SET_NO":999,"REV_AT_EPOCH":89938,"BSTAR":0.0023702619,"MEAN_MOTION_DOT":0.00032214,"MEAN_MOTION_DDOT":0}]
